NORAD_CAT_ID,OBJECT_NAME,OBJECT_TYPE,EPOCH,MEAN_MOTION,ECCENTRICITY,INCLINATION,RA_OF_ASC_NODE,ARG_OF_PERICENTER,MEAN_ANOMALY,BSTAR,MEAN_MOTION_DOT,MEAN_MOTION_DDOT,TLE_LINE0,TLE_LINE1,TLE_LINE2,SEMIMAJOR_AXIS,PERIOD,APOGEE,PERIGEE,DECAYED
50185.0,STARLINK-3279,PAYLOAD,2022-11-01 10:10:56,15.08831145,0.0003245,53.2182,345.0705,17.8309,342.2796,5.8436e-05,6.41e-06,0.0,0 STARLINK-3279,1 50185U 21125AF  22305.42426075  .00000641  00000-0  58436-4 0  9993,2 50185  53.2182 345.0705 0003245  17.8309 342.2796 15.08831145 51788,6917.906999999997,95.438,542.0169999999998,537.528,0.0
50185.0,STARLINK-3279,PAYLOAD,2022-11-02 02:04:48,15.08823713,0.0003188,53.2187,342.0973,20.0977,340.014,8.0058e-05,9.85e-06,0.0,0 STARLINK-3279,1 50185U 21125AF  22306.08667039  .00000985  00000-0  80058-4 0  9999,2 50185  53.2187 342.0973 0003188  20.0977 340.0140 15.08823713 51400,6917.93,95.439,542.001,537.59,0.0
50185.0,STARLINK-3279,PAYLOAD,2022-11-02 10:01:44,15.08821757,0.0003213,53.2183,340.6102,18.7823,341.3287,6.6155e-05,7.64e-06,0.0,0 STARLINK-3279,1 50185U 21125AF  22306.41787560  .00000764  00000-0  66155-4 0  9995,2 50185  53.2183 340.6102 0003213  18.7823 341.3287 15.08821757 51937,6917.936,95.439,542.024,537.578,0.0
50185.0,STARLINK-3279,PAYLOAD,2022-11-02 19:34:03,15.08832024,0.0003261,53.2184,338.826,17.5369,342.5735,4.8582e-05,4.84e-06,0.0,0 STARLINK-3279,1 50185U 21125AF  22306.81531279  .00000484  00000-0  48582-4 0  9996,2 50185  53.2184 338.8260 0003261  17.5369 342.5735 15.08832024 51993,6917.905,95.438,542.026,537.514,0.0
50185.0,STARLINK-3279,PAYLOAD,2022-11-03 01:55:35,15.08838215,0.0003218,53.2182,337.6358,16.0872,344.0222,7.44e-05,8.96e-06,0.0,0 STARLINK-3279,1 50185U 21125AF  22307.08026839  .00000896  00000-0  74400-4 0  9992,2 50185  53.2182 337.6358 0003218  16.0872 344.0222 15.08838215 51559,6917.886,95.438,541.977,537.525,0.0
50185.0,STARLINK-3279,PAYLOAD,2022-11-03 09:52:30,15.08838754,0.0003238,53.2183,336.1492,18.0114,342.0993,8.2603e-05,1.026e-05,0.0,0 STARLINK-3279,1 50185U 21125AF  22307.41146906  .00001026  00000-0  82603-4 0  9997,2 50185  53.2183 336.1492 0003238  18.0114 342.0993 15.08838754 52086,6917.884,95.438,541.989,537.509,0.0
50185.0,STARLINK-3279,PAYLOAD,2022-11-04 01:46:20,15.08859797,0.0003207,53.2181,333.1748,14.8622,345.2464,0.00023287,3.422e-05,0.0,0 STARLINK-3279,1 50185U 21125AF  22308.07384552  .00003422  00000-0  23287-3 0  9995,2 50185  53.2181 333.1748 0003207  14.8622 345.2464 15.08859797 51705,6917.82,95.436,541.903,537.466,0.0
50185.0,STARLINK-3279,PAYLOAD,2022-11-04 11:18:40,15.08841399,0.0003352,53.2188,331.3925,11.2283,348.8784,8.1431e-05,1.008e-05,0.0,0 STARLINK-3279,1 50185U 21125AF  22308.47129963  .00001008  00000-0  81431-4 0  9996,2 50185  53.2188 331.3925 0003352  11.2283 348.8784 15.08841399 51763,6917.876,95.437,542.06,537.422,0.0
50185.0,STARLINK-3279,PAYLOAD,2022-11-05 07:58:41,15.08832498,0.0003568,53.2171,327.5268,13.7943,346.3146,-1.9279e-05,-5.96e-06,0.0,0 STARLINK-3279,1 50185U 21125AF  22309.33242696 -.00000596  00000-0 -19279-4 0  9995,2 50185  53.2171 327.5268 0003568  13.7943 346.3146 15.08832498 52374,6917.903,95.438,542.237,537.3,0.0
50185.0,STARLINK-3279,PAYLOAD,2022-11-06 04:38:43,15.08820115,0.0003437,53.218,323.6619,16.7002,343.4103,-0.00012593,-2.292e-05,0.0,0 STARLINK-3279,1 50185U 21125AF  22310.19356356 -.00002292  00000-0 -12593-3 0  9996,2 50185  53.2180 323.6619 0003437  16.7002 343.4103 15.08820115 52021,6917.941,95.439,542.184,537.428,0.0
50185.0,STARLINK-3279,PAYLOAD,2022-11-06 07:49:29,15.08823459,0.0003443,53.2175,323.0664,17.5031,342.6079,-7.5435e-05,-1.489e-05,0.0,0 STARLINK-3279,1 50185U 21125AF  22310.32604139 -.00001489  00000-0 -75435-4 0  9998,2 50185  53.2175 323.0664 0003443  17.5031 342.6079 15.08823459 52529,6917.931,95.439,542.178,537.414,0.0
50185.0,STARLINK-3279,PAYLOAD,2022-11-07 06:04:53,15.08846605,0.0003421,53.2178,318.9027,20.6665,339.4465,-7.4799e-05,-1.479e-05,0.0,0 STARLINK-3279,1 50185U 21125AF  22311.25339380 -.00001479  00000-0 -74799-4 0  9995,2 50185  53.2178 318.9027 0003421  20.6665 339.4465 15.08846605 52185,6917.86,95.437,542.092,537.359,0.0
50185.0,STARLINK-3279,PAYLOAD,2022-11-07 07:40:16,15.08833606,0.0003448,53.2181,318.6053,23.2047,336.9101,8.4996e-05,1.064e-05,0.0,0 STARLINK-3279,1 50185U 21125AF  22311.31963729  .00001064  00000-0  84996-4 0  9990,2 50185  53.2181 318.6053 0003448  23.2047 336.9101 15.08833606 52194,6917.9,95.438,542.15,537.38,0.0
50185.0,STARLINK-3279,PAYLOAD,2022-11-08 07:31:03,15.08844164,0.0003415,53.2177,314.145,24.613000000000003,335.5025,0.00017138,2.44e-05,0.0,0 STARLINK-3279,1 50185U 21125AF  22312.31323233  .00002440  00000-0  17138-3 0  9993,2 50185  53.2177 314.1450 0003415  24.6130 335.5025 15.08844164 52341,6917.868,95.437,542.095,537.37,0.0
50185.0,STARLINK-3279,PAYLOAD,2022-11-08 09:06:26,15.08844449,0.0003493,53.2173,313.8467,22.9231,337.1917,0.00020546,2.983e-05,0.0,0 STARLINK-3279,1 50185U 21125AF  22312.37947104  .00002983  00000-0  20546-3 0  9997,2 50185  53.2173 313.8467 0003493  22.9231 337.1917 15.08844449 52838,6917.8669999999975,95.437,542.148,537.315,0.0
50185.0,STARLINK-3279,PAYLOAD,2022-11-08 17:03:21,15.08854233,0.0003572,53.2176,312.3598,23.6422,336.4734,0.00022705,3.328e-05,0.0,0 STARLINK-3279,1 50185U 21125AF  22312.71066302  .00003328  00000-0  22705-3 0  9990,2 50185  53.2176 312.3598 0003572  23.6422 336.4734 15.08854233 52402,6917.837,95.437,542.173,537.231,0.0
50185.0,STARLINK-3279,PAYLOAD,2022-11-09 08:57:12,15.08846033,0.0003987,53.2177,309.386,21.9806,338.1357,9.2873e-05,1.19e-05,0.0,0 STARLINK-3279,1 50185U 21125AF  22313.37306680  .00001190  00000-0  92873-4 0  9998,2 50185  53.2177 309.3860 0003987  21.9806 338.1357 15.08846033 52980,6917.861999999999,95.437,542.485,536.969,0.0
50185.0,STARLINK-3279,PAYLOAD,2022-11-10 00:51:06,15.08820511,0.0003009,53.2179,306.4128,30.3414,329.7752,-0.00021968,-3.782e-05,0.0,0 STARLINK-3279,1 50185U 21125AF  22314.03549550 -.00003782  00000-0 -21968-3 0  9994,2 50185  53.2179 306.4128 0003009  30.3414 329.7752 15.08820511 52608,6917.94,95.439,541.887,537.7230000000002,0.0
50185.0,STARLINK-3279,PAYLOAD,2022-11-10 05:37:16,15.08825416,0.0002913,53.2187,305.521,29.9729,330.1429,-0.00021798,-3.755e-05,0.0,0 STARLINK-3279,1 50185U 21125AF  22314.23421415 -.00003755  00000-0 -21798-3 0  9996,2 50185  53.2187 305.5210 0002913  29.9729 330.1429 15.08825416 53118,6917.925,95.438,541.805,537.775,0.0
50185.0,STARLINK-3279,PAYLOAD,2022-11-10 16:44:57,15.08835742,0.0003612,53.2196,303.44,24.9368,335.1798,-0.00014426,-2.584e-05,0.0,0 STARLINK-3279,1 50185U 21125AF  22314.69788956 -.00002584  00000-0 -14426-3 0  9991,2 50185  53.2196 303.4400 0003612  24.9368 335.1798 15.08835742 52708,6917.893,95.438,542.257,537.26,0.0
50185.0,STARLINK-3279,PAYLOAD,2022-11-11 05:28:01,15.08843132,0.0003455,53.2178,301.0598,22.3341,337.7801,-1.0945e-05,-4.63e-06,0.0,0 STARLINK-3279,1 50185U 21125AF  22315.22780078 -.00000463  00000-0 -10945-4 0  9995,2 50185  53.2178 301.0598 0003455  22.3341 337.7801 15.08843132 52781,6917.871,95.437,542.126,537.346,0.0
50185.0,STARLINK-3279,PAYLOAD,2022-11-11 08:38:48,15.08842848,0.0003441,53.2174,300.4645,20.2304,339.8824,-5.0183e-05,-1.088e-05,0.0,0 STARLINK-3279,1 50185U 21125AF  22315.36028226 -.00001088  00000-0 -50183-4 0  9992,2 50185  53.2174 300.4645 0003441  20.2304 339.8824 15.08842848 53281,6917.871999999999,95.437,542.117,537.356,0.0
50185.0,STARLINK-3279,PAYLOAD,2022-11-12 05:18:49,15.08838649,0.0003299,53.216,296.6011,18.119,341.9919,0.00024176,3.561e-05,0.0,0 STARLINK-3279,1 50185U 21125AF  22316.22140619  .00003561  00000-0  24176-3 0  9997,2 50185  53.2160 296.6011 0003299  18.1190 341.9919 15.08838649 52933,6917.885,95.438,542.0319999999998,537.467,0.0
50185.0,STARLINK-3279,PAYLOAD,2022-11-12 08:29:35,15.08840844,0.0003325,53.2159,296.0056,17.9664,342.1445,0.0002574,3.811e-05,0.0,0 STARLINK-3279,1 50185U 21125AF  22316.35388484  .00003811  00000-0  25740-3 0  9991,2 50185  53.2159 296.0056 0003325  17.9664 342.1445 15.08840844 53430,6917.878000000002,95.438,542.043,537.443,0.0
50185.0,STARLINK-3279,PAYLOAD,2022-11-12 16:26:30,15.08848,0.0003419,53.2164,294.5173,19.6627,340.4496,0.00024341,3.588e-05,0.0,0 STARLINK-3279,1 50185U 21125AF  22316.68508035  .00003588  00000-0  24341-3 0  9990,2 50185  53.2164 294.5173 0003419  19.6627 340.4496 15.08848000 53485,6917.856,95.437,542.086,537.356,0.0
50185.0,STARLINK-3279,PAYLOAD,2022-11-13 05:09:35,15.08853459,0.0003419,53.2173,292.1377,22.8462,337.2681,0.00017086,2.433e-05,0.0,0 STARLINK-3279,1 50185U 21125AF  22317.21499597  .00002433  00000-0  17086-3 0  9998,2 50185  53.2173 292.1377 0003419  22.8462 337.2681 15.08853459 53088,6917.839,95.437,542.069,537.339,0.0
50185.0,STARLINK-3279,PAYLOAD,2022-11-13 08:20:22,15.08847669,0.0003458999999999,53.2173,291.5462,15.618,344.4919,0.00010516,1.386e-05,0.0,0 STARLINK-3279,1 50185U 21125AF  22317.34747954  .00001386  00000-0  10516-3 0  9992,2 50185  53.2173 291.5462 0003459  15.6180 344.4919 15.08847669 53100,6917.857,95.437,542.115,537.3290000000002,0.0
50185.0,STARLINK-3279,PAYLOAD,2022-11-14 08:11:10,15.08840611,0.0003477,53.2174,287.0833,20.0094,340.1034,-8.520399999999999e-05,-1.645e-05,0.0,0 STARLINK-3279,1 50185U 21125AF  22318.34108964 -.00001645  00000-0 -85204-4 0  9992,2 50185  53.2174 287.0833 0003477  20.0094 340.1034 15.08840611 53254,6917.879,95.438,542.149,537.3380000000002,0.0
50185.0,STARLINK-3279,PAYLOAD,2022-11-14 14:32:42,15.08847993,0.000349,53.2176,285.8944,20.6319,339.4813,-5.6622e-05,-1.19e-05,0.0,0 STARLINK-3279,1 50185U 21125AF  22318.60604311 -.00001190  00000-0 -56622-4 0  9995,2 50185  53.2176 285.8944 0003490  20.6319 339.4813 15.08847993 53779,6917.856,95.437,542.135,537.307,0.0
